BATSU-CS1 (IRAZU)       
1 43468U 98067NR  20037.54364807  .00238139  33535-4  57241-3 0  9995
2 43468  51.6282 208.7846 0003848 273.4150  86.6418 15.96010634199716
CUBERRT                 
1 43546U 98067NU  20037.60023285  .00011809  00000-0  10394-3 0  9999
2 43546  51.6342 235.7388 0002964 302.7185  57.3526 15.69258230 89510
TEMPEST-D               
1 43547U 98067NV  20037.64716464  .00004757  00000-0  62704-4 0  9999
2 43547  51.6364 256.3670 0004363 277.8970  82.1528 15.60530150 88924
RAINCUBE                
1 43548U 98067NW  20037.08179125  .00016547  00000-0  15169-3 0  9997
2 43548  51.6334 246.5073 0003685 289.4686  70.5912 15.67902468 89458
HALOSAT                 
1 43549U 98067NX  20037.29498945  .00012785  00000-0  11930-3 0  9997
2 43549  51.6349 245.7242 0003607 292.4713  67.5901 15.67718812 89040
ENDUROSAT ONE           
1 43551U 98067NZ  20037.54284508  .00029931  00000-0  23435-3 0  9990
2 43551  51.6327 238.3372 0003579 303.7429  56.3228 15.71323208 89571
EQUISAT                 
1 43552U 98067PA  20036.99150405  .00017046  00000-0  15511-3 0  9997
2 43552  51.6358 245.9881 0004164 300.7732  59.2855 15.68059577 89388
AEROCUBE 12A            
1 43556U 18046C   20037.59211803  .00000984  00000-0  46500-4 0  9993
2 43556  51.6434  18.9398 0008193 179.8186 180.2799 15.29372944 87194
AEROCUBE 12B            
1 43557U 18046D   20037.17367972  .00001070  00000-0  49785-4 0  9992
2 43557  51.6432  21.3888 0008345 178.0669 182.0345 15.29150284 87076
UITMSAT-1               
1 43589U 98067PD  20036.98381800  .00021002  00000-0  18129-3 0  9996
2 43589  51.6324 245.8103 0003396 309.5403  50.5294 15.69191371 85124
MAYA-1                  
1 43590U 98067PE  20036.84956652  .00022876  00000-0  19698-3 0  9998
2 43590  51.6322 246.4219 0003502 309.5857  50.4830 15.69191446 85039
BHUTAN-1                
1 43591U 98067PF  20037.59501527  .00025310  00000-0  21639-3 0  9993
2 43591  51.6333 242.4475 0003685 312.8950  47.1737 15.69299012 85155
SIRIUSSAT-1             
1 43595U 98067PG  20037.29146953  .00016048  00000-0  14801-3 0  9993
2 43595  51.6329 247.1319 0002266 257.2545 102.8198 15.67782058 84243
SIRIUSSAT-2             
1 43596U 98067PH  20037.59988671  .00016922  00000-0  15631-3 0  9991
2 43596  51.6337 246.2539 0002673 260.1307  99.9387 15.67697643 84283
TANUSHA-3               
1 43597U 98067PJ  20037.59352592  .00027088  00000-0  20568-3 0  9999
2 43597  51.6306 240.0761 0002108 269.2627  90.8130 15.72116366 84366
SURFSAT                 
1 43614U 18070B   20037.13856479  .00002208  00000-0  57969-4 0  9991
2 43614  93.0330  99.8748 0017826 123.5382 236.7578 15.38553422 78136
CP7 (DAVE)              
1 43615U 18070C   20037.15894730  .00002220  00000-0  58497-4 0  9997
2 43615  93.0334  99.8800 0017972 122.9708 237.3277 15.38440719 78134
ELFIN-B                 
1 43616U 18070D   20037.62772698  .00003962  00000-0  10067-3 0  9992
2 43616  93.0294  99.9863 0018480 123.9488 236.3526 15.39500996 78233
ELFIN-A                 
1 43617U 18070E   20037.60947089  .00003983  00000-0  10081-3 0  9998
2 43617  93.0348 100.3806 0017859 120.9079 239.3934 15.39633440 78237
CUBEBEL-1 (BSUSAT-1)    
1 43666U 18083E   20037.67711718  .00001001  00000-0  52441-4 0  9997
2 43666  97.5037  65.3689 0016980  98.3365 358.1476 15.17994976 70620
DEBRISSAT-2             
1 43680U 98067PR  20037.58229471  .00044996  00000-0  27605-3 0  9996
2 43680  51.6335 236.2790 0001611 265.7819  94.2998 15.76805771 93147
CICERO 10               
1 43690U 18088A   20037.31036972  .00000953  00000-0  42234-4 0  9996
2 43690  85.0410 165.3695 0017112  77.3612 282.9541 15.20014638 68684
IRVINE01                
1 43693U 18088D   20037.32547030  .00002000  00000-0  84682-4 0  9990
2 43693  85.0378 164.4266 0019654  61.8312 298.4913 15.22298253 68743
PROXIMA I               
1 43694U 18088E   20037.32134964  .00000893  00000-0  37397-4 0  9998
2 43694  85.0353 164.2258 0021009  53.6743 306.6434 15.21749017 68759
PROXIMA II              
1 43696U 18088G   20037.58284990  .00000958  00000-0  40208-4 0  9990
2 43696  85.0354 164.0554 0021029  52.7387 307.5769 15.21754042 68783
FACSAT-1                
1 43721U 18096C   20037.63070543  .00001405  00000-0  55916-4 0  9991
2 43721  97.4351 111.8623 0016639 224.4955 135.4948 15.26853826 66277
CENTAURI-2              
1 43722U 18096D   20037.30382370  .00001734  00000-0  67522-4 0  9991
2 43722  97.4359 111.7004 0016690 225.9748 134.0116 15.27259746 66220
INNOSAT-2               
1 43738U 18096V   20037.34880647  .00002289  00000-0  81813-4 0  9997
2 43738  97.4373 113.1898 0022570 235.7912 124.1190 15.29652977 66335
SIRION PATHFINDER-2     
1 43759U 18099B   20037.61208282  .00000556  00000-0  55760-4 0  9999
2 43759  97.7206 111.4320 0012803 262.1519  97.8249 14.95223318 64224
CORVUS-BC 4             
1 43767U 18099K   20037.16946781 -.00000038  00000-0  17712-5 0  9993
2 43767  97.7192 110.5490 0010307 268.5658  91.4381 14.94665274 64144
MOVE-II                 
1 43780U 18099Y   20037.29815077  .00000356  00000-0  37505-4 0  9998
2 43780  97.7210 111.0271 0012061 276.0641  83.9205 14.95271636 64167
SPACEBEE-7              
1 43816U 18099BL  20037.19734818  .00000300  00000-0  32237-4 0  9996
2 43816  97.7220 111.2364 0012150 258.9368 101.0487 14.95580042 63726
SPACEBEE-5              
1 43817U 18099BM  20037.19826179  .00000837  00000-0  79624-4 0  9995
2 43817  97.7257 111.4973 0012068 258.2580 101.7288 14.96040710 63733
SPACEBEE-6              
1 43818U 18099BN  20037.30956593  .00000050  00000-0  96423-5 0  9997
2 43818  97.7235 111.4290 0012021 258.7308 101.2562 14.95729945 63894
SHIELDS 1               
1 43850U 18104B   20037.05816195  .00000041  00000-0  00000+0 0  9995
2 43850  85.0245 262.8566 0014024 188.1547 171.9551 15.21267728 63342
STF-1                   
1 43852U 18104D   20037.05565849  .00000041  00000-0  00000-0 0  9995
2 43852  85.0331 263.3029 0013436 203.3673 156.7005 15.21002430 63326
ZACUBE-2                
1 43907U 18111AH  20037.71944509  .00000546  00000-0  25002-4 0  9994
2 43907  97.2775 301.3640 0019977 247.4475 112.4649 15.24440553 61945
LUME 1                  
1 43908U 18111AJ  20037.67720826  .00001036  00000-0  44456-4 0  9993
2 43908  97.2775 301.4166 0019791 247.5260 112.3883 15.24768619 61942
AOBA VELOX-IV           
1 43940U 19003J   20037.62964977  .00001740  00000-0  73084-4 0  9993
2 43940  97.2477  93.3342 0023124 333.4821 177.8750 15.24531297 58566
CATSAT-2                
1 44029U 98067PV  20037.62145773  .00013994  00000-0  16771-3 0  9997
2 44029  51.6377 262.2346 0003368 304.9044  55.1633 15.61229508 57902
DELPHINI                
1 44030U 98067PW  20037.63925496  .00015239  00000-0  17859-3 0  9990
2 44030  51.6349 261.5440 0003217 298.2480  61.8189 15.61733133 57883
UNITE                   
1 44031U 98067PX  20037.35477920  .00006785  00000-0  92294-4 0  9997
2 44031  51.6369 266.4266 0002388 295.8293  64.2453 15.58871330 57798
TECHEDSAT 8             
1 44032U 98067PY  20037.30741185  .00065356  00000-0  39459-3 0  9992
2 44032  51.6286 248.7531 0002486 250.1270 109.9462 15.77010052 58002
CATSAT-1                
1 44033U 98067PZ  20037.23720982  .00009358  00000-0  11426-3 0  9991
2 44033  51.6382 264.1719 0003275 301.7891  58.2783 15.61224025 57752
RAAVANA-1               
1 44329U 98067QE  20037.07167954  .00008214  00000-0  12568-3 0  9993
2 44329  51.6396 276.5652 0006233 221.1707 138.8815 15.55311897 36380
UGUISU                  
1 44330U 98067QF  20037.52814982  .00007484  00000-0  11537-3 0  9998
2 44330  51.6393 274.3618 0006220 221.6157 138.4361 15.55258859 36433
NEPALISAT-1             
1 44331U 98067QG  20037.64483600  .00009533  00000-0  14448-3 0  9992
2 44331  51.6392 273.6435 0006219 224.8148 135.2342 15.55355366 36463
SPOOQY-1                
1 44332U 98067QH  20037.57848329  .00008915  00000-0  13576-3 0  9992
2 44332  51.6393 273.9472 0005069 225.8933 134.1641 15.55322999 36415
SPACEBEE-9              
1 44370U 19037F   20037.61836803  .00007584  00000-0  18509-3 0  9995
2 44370  45.0124 131.8170 0012160 136.2580 223.9265 15.41433861 34240
SPACEBEE-8              
1 44371U 19037G   20037.65125315  .00013297  00000-0  29334-3 0  9995
2 44371  45.0144 129.5323 0009638 145.1019 215.0503 15.43882860 34267
IOD-1 GEMS              
1 44385U 98067QK  20037.25499414  .00010985  00000-0  16016-3 0  9994
2 44385  51.6404 275.5672 0003278 180.9357 179.1629 15.56245339 33872
MOVE-IIB                
1 44398U 19038N   20037.34149841  .00000844  00000-0  52638-4 0  9999
2 44398  97.5195   0.4233 0024215 220.1194 139.8249 15.12025794 32615
SONATE                  
1 44400U 19038Q   20037.15223157  .00000321  00000-0  22504-4 0  9994
2 44400  97.5220   0.2556 0024240 218.8713 141.0774 15.11821753 32585
LUCKY-7                 
1 44406U 19038W   20037.58666199  .00000573  00000-0  36956-4 0  9999
2 44406  97.5219   0.7446 0023697 217.0055 142.9542 15.12051601 32645
BEESAT 9                
1 44412U 19038AC  20037.32506589  .00000675  00000-0  42840-4 0  9996
2 44412  97.5213   0.4705 0021642 223.8669 136.0844 15.12073171 32303
JAISAT-1                
1 44419U 19038F   20037.65211585  .00000785  00000-0  48616-4 0  9997
2 44419  97.5215   0.9574 0020525 222.0162 137.9495 15.12556550 32678
SWIATOWID               
1 44426U 98067QL  20037.70886692  .00013300  00000-0  19057-3 0  9990
2 44426  51.6422 273.2530 0004123 178.0268 222.7450 15.56503542 33965
KRAKSAT                 
1 44427U 98067QM  20037.52582788  .00005959  00000-0  97482-4 0  9990
2 44427  51.6409 275.8690 0003959 174.2115 185.8922 15.54042031 33952
VCC A                   
1 44428U 98067QN  20037.20850698  .00007045  00000-0  11087-3 0  9998
2 44428  51.6409 276.7530 0003066 189.2438 170.8497 15.54796897 33912
